[{"OBJECT_NAME":"GEESAT-2 09","OBJECT_ID":"2024-023J","EPOCH":"2026-03-09T21:37:55.305984","MEAN_MOTION":14.82902354,"ECCENTRICITY":0.00224852,"INCLINATION":50.0021,"RA_OF_ASC_NODE":93.8304,"ARG_OF_PERICENTER":345.4552,"MEAN_ANOMALY":14.5736,"EPHEMERIS_TYPE":0,"CLASSIFICATION_TYPE":"U","NORAD_CAT_ID":58913,"ELEMENT_SET_NO":999,"REV_AT_EPOCH":11418,"BSTAR":0.00034180683,"MEAN_MOTION_DOT":2.583e-5,"MEAN_MOTION_DDOT":0},{"OBJECT_NAME":"KUIPER-00129","OBJECT_ID":"2025-228M","EPOCH":"2026-03-09T22:41:03.132960","MEAN_MOTION":14.7990981,"ECCENTRICITY":7.751e-5,"INCLINATION":51.9026,"RA_OF_ASC_NODE":346.9739,"ARG_OF_PERICENTER":62.2574,"MEAN_ANOMALY":297.8467,"EPHEMERIS_TYPE":0,"CLASSIFICATION_TYPE":"U","NORAD_CAT_ID":65958,"ELEMENT_SET_NO":999,"REV_AT_EPOCH":2344,"BSTAR":-0.00027012621,"MEAN_MOTION_DOT":-2.279e-5,"MEAN_MOTION_DDOT":0}]
